*******************************************************************************
JPL/HORIZONS              274 Philagoria (A888 GA)         2023-Sep-04 11:05:23
Rec #:     274 (+COV) Soln.date: 2023-Aug-23_01:32:49   # obs: 4556 (1899-2023)
 
IAU76/J2000 helio. ecliptic osc. elements (au, days, deg., period=Julian yrs):
 
  EPOCH=  2457206.5 ! 2015-Jul-03.00 (TDB)         Residual RMS= .2832
   EC= .1202908710384429   QR= 2.678637693051331   TP= 2457354.8332786439
   OM= 92.81890819745014   W=  119.2719603468118   IN= 3.677574111710142
   A= 3.044912920493731    MA= 332.484313385366    ADIST= 3.411188147936131
   PER= 5.31338            N= .185499079           ANGMOM= .029799147
   DAN= 3.18838            DDN= 2.83416            L= 212.1412698
   B= 3.2074525            MOID= 1.67586005        TP= 2015-Nov-28.3332786439
 
Asteroid physical parameters (km, seconds, rotational period in hours):
   GM= n.a.                RAD= 13.6535            ROTPER= 17.938
   H= 10.06                G= .150                 B-V= n.a.
                           ALBEDO= .237            STYP= n.a.

ASTEROID comments: 
1: soln ref.= JPL#60, OCC=0
2: source=ORB
*******************************************************************************


*******************************************************************************
Ephemeris / API_USER Mon Sep  4 11:05:23 2023 Pasadena, USA      / Horizons
*******************************************************************************
Target body name: 274 Philagoria (A888 GA)        {source: JPL#60}
Center body name: Solar System Barycenter (0)     {source: DE441}
Center-site name: BODY CENTER
*******************************************************************************
Start time      : A.D. 2023-Aug-12 00:00:00.0000 TDB
Stop  time      : A.D. 2023-Aug-13 00:00:00.0000 TDB
Step-size       : 2880 minutes
*******************************************************************************
Center geodetic : 0.0, 0.0, 0.0                   {E-lon(deg),Lat(deg),Alt(km)}
Center cylindric: 0.0, 0.0, 0.0                   {E-lon(deg),Dxy(km),Dz(km)}
Center radii    : (undefined)
Small perturbers: Yes                             {source: SB441-N16}
Output units    : KM-S
Calendar mode   : Mixed Julian/Gregorian
Output type     : GEOMETRIC cartesian states
Output format   : 2 (position and velocity)
Reference frame : Ecliptic of J2000.0
*******************************************************************************
Initial IAU76/J2000 heliocentric ecliptic osculating elements (au, days, deg.):
  EPOCH=  2457206.5 ! 2015-Jul-03.00 (TDB)         Residual RMS= .2832         
   EC= .1202908710384429   QR= 2.678637693051331   TP= 2457354.8332786439      
   OM= 92.81890819745014   W=  119.2719603468118   IN= 3.677574111710142       
  Equivalent ICRF heliocentric cartesian coordinates (au, au/d):
   X=-2.722468200816552E+00  Y= 5.092775426771690E-02  Z= 2.121195213360121E-01
  VX= 1.597161668713803E-04 VY=-1.003846753470844E-02 VZ=-4.325724330374019E-03
Asteroid physical parameters (km, seconds, rotational period in hours):        
   GM= n.a.                RAD= 13.6535            ROTPER= 17.938              
   H= 10.06                G= .150                 B-V= n.a.                   
                           ALBEDO= .237            STYP= n.a.                  
*******************************************************************************
JDTDB
   X     Y     Z
   VX    VY    VZ
*******************************************************************************
$$SOE
2460168.500000000 = A.D. 2023-Aug-12 00:00:00.0000 TDB 
 X = 4.803371567437903E+08 Y = 1.565875437791632E+08 Z =-3.134446549052481E+07
 VX=-4.168693863246657E+00 VY= 1.464561558327930E+01 VZ= 2.242411538957390E-01
$$EOE
*******************************************************************************
 
TIME

  Barycentric Dynamical Time ("TDB" or T_eph) output was requested. This
continuous coordinate time is equivalent to the relativistic proper time
of a clock at rest in a reference frame co-moving with the solar system
barycenter but outside the system's gravity well. It is the independent
variable in the solar system relativistic equations of motion.

  TDB runs at a uniform rate of one SI second per second and is independent
of irregularities in Earth's rotation.
 
CALENDAR SYSTEM

  Mixed calendar mode was active such that calendar dates after AD 1582-Oct-15
(if any) are in the modern Gregorian system. Dates prior to 1582-Oct-5 (if any)
are in the Julian calendar system, which is automatically extended for dates
prior to its adoption on 45-Jan-1 BC.  The Julian calendar is useful for
matching historical dates. The Gregorian calendar more accurately corresponds
to the Earth's orbital motion and seasons. A "Gregorian-only" calendar mode is
available if such physical events are the primary interest.

REFERENCE FRAME AND COORDINATES

  Ecliptic at the standard reference epoch

    Reference epoch: J2000.0
    X-Y plane: adopted Earth orbital plane at the reference epoch
               Note: IAU76 obliquity of 84381.448 arcseconds wrt ICRF X-Y plane
    X-axis   : ICRF
    Z-axis   : perpendicular to the X-Y plane in the directional (+ or -) sense
               of Earth's north pole at the reference epoch.

  Symbol meaning:

    JDTDB    Julian Day Number, Barycentric Dynamical Time
      X      X-component of position vector (km)
      Y      Y-component of position vector (km)
      Z      Z-component of position vector (km)
      VX     X-component of velocity vector (km/sec)                           
      VY     Y-component of velocity vector (km/sec)                           
      VZ     Z-component of velocity vector (km/sec)                           

ABERRATIONS AND CORRECTIONS

 Geometric state vectors have NO corrections or aberrations applied.

Computations by ...

    Solar System Dynamics Group, Horizons On-Line Ephemeris System
    4800 Oak Grove Drive, Jet Propulsion Laboratory
    Pasadena, CA  91109   USA

    General site: https://ssd.jpl.nasa.gov/
    Mailing list: https://ssd.jpl.nasa.gov/email_list.html
    System news : https://ssd.jpl.nasa.gov/horizons/news.html
    User Guide  : https://ssd.jpl.nasa.gov/horizons/manual.html
    Connect     : browser        https://ssd.jpl.nasa.gov/horizons/app.html#/x
                  API            https://ssd-api.jpl.nasa.gov/doc/horizons.html
                  command-line   telnet ssd.jpl.nasa.gov 6775
                  e-mail/batch   https://ssd.jpl.nasa.gov/ftp/ssd/hrzn_batch.txt
                  scripts        https://ssd.jpl.nasa.gov/ftp/ssd/SCRIPTS
    Author      : Jon.D.Giorgini@jpl.nasa.gov
*******************************************************************************
